QIANFAN-89              
1 63175U 25046S   25223.55894916  .00000183  00000+0  26420-3 0  9998
2 63175  88.9865 332.7341 0018468 120.4936 239.8042 13.50966022 30772
QIANFAN-90              
1 63176U 25046T   25223.51367926  .00000175  00000+0  25204-3 0  9991
2 63176  88.9865 332.7109 0015417 118.7795 241.4907 13.50964743 30787
